{
    "links": {
        "self": "http://www.neowsapp.com/rest/v1/neo/3831217?api_key=iIulBulltgU6a56xZRHN4H3l9WmuAYTsLGpBGhQ2"
    },
    "id": "3831217",
    "neo_reference_id": "3831217",
    "name": "(2018 TC2)",
    "designation": "2018 TC2",
    "nasa_jpl_url": "http://ssd.jpl.nasa.gov/sbdb.cgi?sstr=3831217",
    "absolute_magnitude_h": 26.0,
    "estimated_diameter": {
        "kilometers": {
            "estimated_diameter_min": 0.0167708462,
            "estimated_diameter_max": 0.0375007522
        },
        "meters": {
            "estimated_diameter_min": 16.7708462163,
            "estimated_diameter_max": 37.5007521798
        },
        "miles": {
            "estimated_diameter_min": 0.0104209175,
            "estimated_diameter_max": 0.0233018799
        },
        "feet": {
            "estimated_diameter_min": 55.0224631002,
            "estimated_diameter_max": 123.0339677816
        }
    },
    "is_potentially_hazardous_asteroid": false,
    "close_approach_data": [
        {
            "close_approach_date": "2012-10-07",
            "close_approach_date_full": "2012-Oct-07 09:19",
            "epoch_date_close_approach": 1349601540000,
            "relative_velocity": {
                "kilometers_per_second": "9.8069239259",
                "kilometers_per_hour": "35304.9261333212",
                "miles_per_hour": "21937.1081298962"
            },
            "miss_distance": {
                "astronomical": "0.1107405419",
                "lunar": "43.0780707991",
                "kilometers": "16566549.190885753",
                "miles": "10293976.3291912714"
            },
            "orbiting_body": "Earth"
        },
        {
            "close_approach_date": "2018-10-10",
            "close_approach_date_full": "2018-Oct-10 05:16",
            "epoch_date_close_approach": 1539148560000,
            "relative_velocity": {
                "kilometers_per_second": "8.3274460203",
                "kilometers_per_hour": "29978.8056730675",
                "miles_per_hour": "18627.6640028013"
            },
            "miss_distance": {
                "astronomical": "0.0418668318",
                "lunar": "16.2861975702",
                "kilometers": "6263188.860928266",
                "miles": "3891765.0946354308"
            },
            "orbiting_body": "Earth"
        },
        {
            "close_approach_date": "2019-03-19",
            "close_approach_date_full": "2019-Mar-19 16:19",
            "epoch_date_close_approach": 1553012340000,
            "relative_velocity": {
                "kilometers_per_second": "8.1493291344",
                "kilometers_per_hour": "29337.5848838444",
                "miles_per_hour": "18229.2343407421"
            },
            "miss_distance": {
                "astronomical": "0.1563161067",
                "lunar": "60.8069655063",
                "kilometers": "23384556.609012729",
                "miles": "14530489.6890805002"
            },
            "orbiting_body": "Earth"
        },
        {
            "close_approach_date": "2024-10-10",
            "close_approach_date_full": "2024-Oct-10 11:04",
            "epoch_date_close_approach": 1728558240000,
            "relative_velocity": {
                "kilometers_per_second": "7.7065481361",
                "kilometers_per_hour": "27743.5732899001",
                "miles_per_hour": "17238.7775256049"
            },
            "miss_distance": {
                "astronomical": "0.1002007285",
                "lunar": "38.9780833865",
                "kilometers": "14989815.556048295",
                "miles": "9314239.479504671"
            },
            "orbiting_body": "Earth"
        }
    ],
    "orbital_data": {
        "orbit_id": "3",
        "orbit_determination_date": "2018-10-15 07:17:11",
        "first_observation_date": "2018-10-05",
        "last_observation_date": "2018-10-14",
        "data_arc_in_days": 9,
        "observations_used": 22,
        "orbit_uncertainty": "8",
        "minimum_orbit_intersection": ".0418512",
        "jupiter_tisserand_invariant": "5.492",
        "epoch_osculation": "2458398.5",
        "eccentricity": ".143950389339173",
        "semi_major_axis": "1.131280441681575",
        "inclination": "14.78539079029772",
        "ascending_node_longitude": "193.2208629872386",
        "orbital_period": "439.4949053811071",
        "perihelion_distance": ".9684321816497204",
        "perihelion_argument": "245.3799414080278",
        "aphelion_distance": "1.294128701713429",
        "perihelion_time": "2458460.326317834989",
        "mean_anomaly": "309.3566952697768",
        "mean_motion": ".8191221231286556",
        "equinox": "J2000",
        "orbit_class": {
            "orbit_class_type": "APO",
            "orbit_class_description": "Near-Earth asteroid orbits which cross the Earth’s orbit similar to that of 1862 Apollo",
            "orbit_class_range": "a (semi-major axis) > 1.0 AU; q (perihelion) < 1.017 AU"
        }
    },
    "is_sentry_object": false
}